     3.00           N: GNSS NAV DATA    E: Galileo          RINEX VERSION / TYPE
PREC2NAV                                20121215 063331 UTC PGM / RUN BY / DATE 
SOURCE: data/tum%W%D.sp3                                    COMMENT             
                                                            END OF HEADER       
E12 2012 11 28 16  0  0  .610692919000E-03  .850469666667E-10  .000000000000E+00
      .900000000000E+01  .319086578453E+02  .349792064018E-08 -.187106894112E+00
      .156236350983E-05  .665266750467E-04  .724346281380E-05  .544060083669E+04
      .316800000000E+06 -.109565389860E-07  .945197718191E+00 -.285332973260E-07
      .956407448466E+00  .184220168337E+03 -.275698754681E+01 -.554197233941E-08
      .652739743973E-09  .000000000000E+00  .171600000000E+04  .000000000000E+00
      .240000000000E+01  .000000000000E+00  .000000000000E+00  .000000000000E+00
      .320400000000E+06  .000000000000E+00
E11 2012 11 28 18  0  0 -.169365555040E-03  .825924333333E-10  .000000000000E+00
      .100000000000E+02  .282704689939E+02  .345779450695E-08  .203236930071E+01
      .138477426232E-05  .109041831136E-03  .740551269379E-05  .544060429061E+04
      .324000000000E+06 -.956127290462E-08  .945183493280E+00 -.221884537820E-07
      .956400402655E+00  .181061126503E+03 -.478802488353E+01 -.553134919280E-08
      .667299756004E-09  .000000000000E+00  .171600000000E+04  .000000000000E+00
      .240000000000E+01  .000000000000E+00  .000000000000E+00  .000000000000E+00
      .327600000000E+06  .000000000000E+00
E12 2012 11 28 18  0  0  .611305504640E-03  .851052538462E-10  .000000000000E+00
      .100000000000E+02  .267564835127E+02  .348479471564E-08  .706725277757E+00
      .115159683764E-05  .656523277802E-04  .744959252440E-05  .544059903225E+04
      .324000000000E+06  .144981404077E-07  .945157615869E+00 -.443489550961E-07
      .956412089312E+00  .180496669332E+03 -.275818581633E+01 -.556298223471E-08
      .671782155597E-09  .000000000000E+00  .171600000000E+04  .000000000000E+00
      .240000000000E+01  .000000000000E+00  .000000000000E+00  .000000000000E+00
      .327600000000E+06  .000000000000E+00
E11 2012 11 28 20  0  0 -.168771317600E-03  .825280717949E-10  .000000000000E+00
      .110000000000E+02  .264863750109E+02  .343122718619E-08  .292754370458E+01
      .113469166147E-05  .109114829438E-03  .748645729201E-05  .544060381296E+04
      .331200000000E+06  .227426443444E-07  .945143414214E+00 -.359068926314E-07
      .956405178691E+00  .178707526982E+03 -.479056768984E+01 -.555359014375E-08
      .690540436233E-09  .000000000000E+00  .171600000000E+04  .000000000000E+00
      .240000000000E+01  .000000000000E+00  .000000000000E+00  .000000000000E+00
      .334800000000E+06  .000000000000E+00
E12 2012 11 28 20  0  0  .611918386000E-03  .851466769231E-10  .000000000000E+00
      .110000000000E+02  .270019701853E+02  .339138057072E-08  .158534788617E+01
      .115740679869E-05  .660509864407E-04  .751448549846E-05  .544060110695E+04
      .331200000000E+06  .209698200255E-07  .945117045621E+00  .248147902524E-07
      .956417159919E+00  .173328572888E+03 -.274417492939E+01 -.556569994829E-08
      .740185537257E-09  .000000000000E+00  .171600000000E+04  .000000000000E+00
      .240000000000E+01  .000000000000E+00  .000000000000E+00  .000000000000E+00
      .334800000000E+06  .000000000000E+00
E11 2012 11 28 22  0  0 -.168176947920E-03  .825803794872E-10  .000000000000E+00
      .120000000000E+02  .263726942097E+02  .334124225964E-08 -.246235451416E+01
      .120503871114E-05  .108269801071E-03  .754004998645E-05  .544060553909E+04
      .338400000000E+06  .973253837873E-08  .945103024280E+00  .182083355332E-07
      .956410414432E+00  .172406293428E+03  .149196113568E+01 -.554703425023E-08
      .747646517798E-09  .000000000000E+00  .171600000000E+04  .000000000000E+00
      .240000000000E+01  .000000000000E+00  .000000000000E+00  .000000000000E+00
      .342000000000E+06  .000000000000E+00
E12 2012 11 28 22  0  0  .612531280800E-03  .850888692308E-10  .000000000000E+00
      .120000000000E+02  .317042792260E+02  .334119044709E-08  .248690404796E+01
      .160016839257E-05  .664776261009E-04  .763594536647E-05  .544059960760E+04
      .338400000000E+06  .576082862765E-08  .945076934631E+00  .116117928314E-07
      .956422605854E+00  .170940672539E+03 -.275309870657E+01 -.555144326274E-08
      .752124679337E-09  .000000000000E+00  .171600000000E+04  .000000000000E+00
      .240000000000E+01  .000000000000E+00  .000000000000E+00  .000000000000E+00
      .342000000000E+06  .000000000000E+00
E11 2012 11 29  0  0  0 -.167583192000E-03  .822278153846E-10  .000000000000E+00
      .130000000000E+02  .339311718769E+02  .337884618897E-08 -.158051012955E+01
      .170829352397E-05  .108809162611E-03  .784318886262E-05  .544060285198E+04
      .345600000000E+06 -.957853441463E-07  .945063145055E+00  .512164109347E-07
      .956415298506E+00  .167665930382E+03  .150274706457E+01 -.563853467905E-08
      .739116169978E-09  .000000000000E+00  .171600000000E+04  .000000000000E+00
      .240000000000E+01  .000000000000E+00  .000000000000E+00  .000000000000E+00
      .349200000000E+06  .000000000000E+00
E12 2012 11 29  0  0  0  .613142866400E-03  .846939025641E-10  .000000000000E+00
      .130000000000E+02  .342040619970E+02  .335046468991E-08 -.290272418396E+01
      .164821534844E-05  .661600235864E-04  .772650460327E-05  .544060020902E+04
      .345600000000E+06  .757384927980E-07  .945036412822E+00 -.160392050260E-06
      .956427538726E+00  .172430663571E+03 -.275402293153E+01 -.565950593915E-08
      .821740347641E-09  .000000000000E+00  .171600000000E+04  .000000000000E+00
      .240000000000E+01  .000000000000E+00  .000000000000E+00  .000000000000E+00
      .349200000000E+06  .000000000000E+00
